CCSDS_OMM_VERS,COMMENT,CREATION_DATE,ORIGINATOR,OBJECT_NAME,OBJECT_ID,CENTER_NAME,REF_FRAME,TIME_SYSTEM,MEAN_ELEMENT_THEORY,EPOCH,MEAN_MOTION,ECCENTRICITY,INCLINATION,RA_OF_ASC_NODE,ARG_OF_PERICENTER,MEAN_ANOMALY,EPHEMERIS_TYPE,CLASSIFICATION_TYPE,NORAD_CAT_ID,ELEMENT_SET_NO,REV_AT_EPOCH,BSTAR,MEAN_MOTION_DOT,MEAN_MOTION_DDOT,SEMIMAJOR_AXIS,PERIOD,APOAPSIS,PERIAPSIS,OBJECT_TYPE,RCS_SIZE,COUNTRY_CODE,LAUNCH_DATE,SITE,DECAY_DATE,FILE,GP_ID,TLE_LINE0,TLE_LINE1,TLE_LINE2
"2.0","GENERATED VIA SPACE-TRACK.ORG API","2019-08-31T03:52:39","18 SPCS","STARLINK","2019-029AC","EARTH","TEME","UTC","SGP4","2019-08-30T21:36:45.195840","15.05487681","0.00019480","53.0010","88.6309","86.8433","273.2778","0","U","44261","999","1410","0.00000131830000","-0.00000260","0.0000000000000","6928.146","95.650","551.360","548.661","PAYLOAD","LARGE","US","2019-05-24","AFETR","","2589906","138235451","0 STARLINK","1 44261U 19029AC  19242.90052310 -.00000260 +00000-0 +13183-5 0  9996","2 44261 053.0010 088.6309 0001948 086.8433 273.2778 15.05487681014103"
"2.0","GENERATED VIA SPACE-TRACK.ORG API","2019-08-31T06:40:17","18 SPCS","AEOLUS","2018-066A","EARTH","TEME","UTC","SGP4","2019-08-31T00:29:58.799616","15.86818649","0.00043220","96.7205","248.7671","98.6833","335.9711","0","U","43600","999","5915","0.00007976100000","0.00020188","0.0000000000000","6689.345","90.747","314.101","308.319","PAYLOAD","LARGE","ESA","2018-08-22","FRGUI","","2590094","138240240","0 AEOLUS","1 43600U 18066A   19243.02081944  .00020188  00000-0  79761-4 0  9994","2 43600  96.7205 248.7671 0004322  98.6833 335.9711 15.86818649 59152"
"2.0","GENERATED VIA SPACE-TRACK.ORG API","2019-08-31T14:40:18","18 SPCS","AEOLUS","2018-066A","EARTH","TEME","UTC","SGP4","2019-08-31T11:27:14.516640","15.86838085","0.00041680","96.7197","249.2172","98.0728","62.1973","0","U","43600","999","5922","0.00008052300000","0.00020401","0.0000000000000","6689.291","90.746","313.944","308.368","PAYLOAD","LARGE","ESA","2018-08-22","FRGUI","","2590291","138244787","0 AEOLUS","1 43600U 18066A   19243.47725135  .00020401  00000-0  80523-4 0  9996","2 43600  96.7197 249.2172 0004168  98.0728  62.1973 15.86838085 59222"
"2.0","GENERATED VIA SPACE-TRACK.ORG API","2019-08-31T22:50:15","18 SPCS","AEOLUS","2018-066A","EARTH","TEME","UTC","SGP4","2019-08-31T18:33:02.078208","15.86852228","0.00040950","96.7198","249.5087","96.4844","311.7980","0","U","43600","999","5927","0.00008222000000","0.00020849","0.0000000000000","6689.251","90.745","313.855","308.377","PAYLOAD","LARGE","ESA","2018-08-22","FRGUI","","2590546","138269775","0 AEOLUS","1 43600U 18066A   19243.77294072  .00020849  00000-0  82220-4 0  9992","2 43600  96.7198 249.5087 0004095  96.4844 311.7980 15.86852228 59272"
"2.0","GENERATED VIA SPACE-TRACK.ORG API","2019-09-01T04:13:05","18 SPCS","STARLINK","2019-029AC","EARTH","TEME","UTC","SGP4","2019-08-31T19:55:06.348576","15.05492355","0.00019770","53.0010","84.4589","89.4936","270.6278","0","U","44261","999","1424","0.00007672300000","0.00000836","0.0000000000000","6928.131","95.649","551.366","548.627","PAYLOAD","LARGE","US","2019-05-24","AFETR","","2590569","138288598","0 STARLINK","1 44261U 19029AC  19243.82993459 +.00000836 +00000-0 +76723-4 0  9992","2 44261 053.0010 084.4589 0001977 089.4936 270.6278 15.05492355014241"
"2.0","GENERATED VIA SPACE-TRACK.ORG API","2019-09-01T06:40:18","18 SPCS","AEOLUS","2018-066A","EARTH","TEME","UTC","SGP4","2019-09-01T00:39:04.158144","15.86863806","0.00040900","96.7198","249.7591","95.1881","324.2114","0","U","43600","999","5931","0.00008302200000","0.00021066","0.0000000000000","6689.218","90.745","313.819","308.347","PAYLOAD","LARGE","ESA","2018-08-22","FRGUI","","2590772","138293655","0 AEOLUS","1 43600U 18066A   19244.02713146  .00021066  00000-0  83022-4 0  9992","2 43600  96.7198 249.7591 0004090  95.1881 324.2114 15.86863806 59313"
"2.0","GENERATED VIA SPACE-TRACK.ORG API","2019-09-01T06:20:15","18 SPCS","STARLINK","2019-029AC","EARTH","TEME","UTC","SGP4","2019-09-01T00:41:53.735424","15.05492677","0.00019800","53.0010","83.5650","89.3402","270.7813","0","U","44261","999","1521","0.00007576700000","0.00000822","0.0000000000000","6928.130","95.649","551.367","548.623","PAYLOAD","LARGE","US","2019-05-24","AFETR","","2590601","138289412","0 STARLINK","1 44261U 19029AC  19244.02909416  .00000822  00000-0  75767-4 0  9997","2 44261  53.0010  83.5650 0001980  89.3402 270.7813 15.05492677 15212"
"2.0","GENERATED VIA SPACE-TRACK.ORG API","2019-09-01T14:40:17","18 SPCS","AEOLUS","2018-066A","EARTH","TEME","UTC","SGP4","2019-09-01T11:39:14.513760","15.86901790","0.00041210","96.7194","250.2112","95.7408","60.9565","0","U","43600","999","5938","0.00009867200000","0.00025121","0.0000000000000","6689.112","90.742","313.733","308.220","PAYLOAD","LARGE","ESA","2018-08-22","FRGUI","","2590978","138298176","0 AEOLUS","1 43600U 18066A   19244.48558465  .00025121  00000-0  98672-4 0  9996","2 43600  96.7194 250.2112 0004121  95.7408  60.9565 15.86901790 59387"
"2.0","GENERATED VIA SPACE-TRACK.ORG API","2019-09-01T22:40:18","18 SPCS","AEOLUS","2018-066A","EARTH","TEME","UTC","SGP4","2019-09-01T17:17:36.058272","15.86922798","0.00039800","96.7220","250.4428","98.3183","319.8572","0","U","43600","999","5942","0.00010611000000","0.00027057","0.0000000000000","6689.053","90.741","313.580","308.255","PAYLOAD","LARGE","ESA","2018-08-22","FRGUI","","2591250","138323474","0 AEOLUS","1 43600U 18066A   19244.72055623  .00027057  00000-0  10611-3 0  9997","2 43600  96.7220 250.4428 0003980  98.3183 319.8572 15.86922798 59420"
"2.0","GENERATED VIA SPACE-TRACK.ORG API","2019-09-02T03:49:00","18 SPCS","STARLINK","2019-029AC","EARTH","TEME","UTC","SGP4","2019-09-01T21:24:38.979648","15.05494977","0.00019880","53.0010","79.6912","91.1637","268.9578","0","U","44261","999","1440","0.00008133900000","0.00000903","0.0000000000000","6928.123","95.649","551.366","548.611","PAYLOAD","LARGE","US","2019-05-24","AFETR","","2591305","138343171","0 STARLINK","1 44261U 19029AC  19244.89211782 +.00000903 +00000-0 +81339-4 0  9996","2 44261 053.0010 079.6912 0001988 091.1637 268.9578 15.05494977014400"
"2.0","GENERATED VIA SPACE-TRACK.ORG API","2019-09-02T06:50:17","18 SPCS","AEOLUS","2018-066A","EARTH","TEME","UTC","SGP4","2019-09-01T23:20:17.123424","15.86940151","0.00042230","96.7218","250.6906","95.8237","320.2540","0","U","43600","999","5946","0.00011092000000","0.00028320","0.0000000000000","6689.004","90.740","313.694","308.044","PAYLOAD","LARGE","ESA","2018-08-22","FRGUI","","2591514","138367283","0 AEOLUS","1 43600U 18066A   19244.97242041  .00028320  00000-0  11092-3 0  9994","2 43600  96.7218 250.6906 0004223  95.8237 320.2540 15.86940151 59461"
"2.0","GENERATED VIA SPACE-TRACK.ORG API","2019-09-02T14:50:17","18 SPCS","AEOLUS","2018-066A","EARTH","TEME","UTC","SGP4","2019-09-02T07:12:30.970944","15.86967333","0.00045460","96.7220","251.0137","95.6435","32.6923","0","U","43600","999","5951","0.00011844000000","0.00030299","0.0000000000000","6688.927","90.739","313.833","307.752","PAYLOAD","LARGE","ESA","2018-08-22","FRGUI","","2591749","138372759","0 AEOLUS","1 43600U 18066A   19245.30035846  .00030299  00000-0  11844-3 0  9998","2 43600  96.7220 251.0137 0004546  95.6435  32.6923 15.86967333 59517"
"2.0","GENERATED VIA SPACE-TRACK.ORG API","2019-09-02T14:30:17","18 SPCS","STARLINK","2019-029AC","EARTH","TEME","UTC","SGP4","2019-09-02T10:09:26.252928","15.05467711","0.00021670","52.9998","77.3072","91.8392","268.2844","0","U","44261","999","1542","0.00012234000000","0.00001498","0.0000000000000","6928.207","95.651","551.573","548.571","PAYLOAD","LARGE","US","2019-05-24","AFETR","","2591582","138368794","0 STARLINK","1 44261U 19029AC  19245.42322052  .00001498  00000-0  12234-3 0  9996","2 44261  52.9998  77.3072 0002167  91.8392 268.2844 15.05467711 15428"
"2.0","GENERATED VIA SPACE-TRACK.ORG API","2019-09-02T22:40:17","18 SPCS","AEOLUS","2018-066A","EARTH","TEME","UTC","SGP4","2019-09-02T17:29:40.845408","15.86994340","0.00045840","96.7228","251.4369","92.5336","322.6836","0","U","43600","999","5958","0.00012052000000","0.00030877","0.0000000000000","6688.852","90.737","313.783","307.650","PAYLOAD","LARGE","ESA","2018-08-22","FRGUI","","2591943","138396256","0 AEOLUS","1 43600U 18066A   19245.72894497  .00030877  00000-0  12052-3 0  9993","2 43600  96.7228 251.4369 0004584  92.5336 322.6836 15.86994340 59584"
"2.0","GENERATED VIA SPACE-TRACK.ORG API","2019-09-03T03:43:17","18 SPCS","AEOLUS","2018-066A","EARTH","TEME","UTC","SGP4","2019-09-02T18:59:55.002912","15.86998002","0.00043210","96.7217","251.4980","93.9302","319.0485","0","U","43600","999","5959","0.00012086000000","0.00030969","0.0000000000000","6688.841","90.737","313.597","307.816","PAYLOAD","LARGE","ESA","2018-08-22","FRGUI","","2591974","138414608","0 AEOLUS","1 43600U 18066A   19245.79160883 +.00030969 +00000-0 +12086-3 0  9994","2 43600 096.7217 251.4980 0004321 093.9302 319.0485 15.86998002059598"
"2.0","GENERATED VIA SPACE-TRACK.ORG API","2019-09-03T03:43:17","18 SPCS","STARLINK","2019-029AC","EARTH","TEME","UTC","SGP4","2019-09-02T19:43:01.519104","15.05467575","0.00021150","53.0010","75.5195","93.8702","266.2527","0","U","44261","999","1454","0.00004473900000","0.00000371","0.0000000000000","6928.207","95.651","551.538","548.607","PAYLOAD","LARGE","US","2019-05-24","AFETR","","2591974","138415158","0 STARLINK","1 44261U 19029AC  19245.82154536 +.00000371 +00000-0 +44739-4 0  9995","2 44261 053.0010 075.5195 0002115 093.8702 266.2527 15.05467575014547"
